start=new Date('2022-04-26T00:00:00.000Z').valueOf();
sats=[{"APOAPSIS":"548.318","MEAN_MOTION":"15.06402132","SITE":"AFETR","FILE":"3416090","CLASSIFICATION_TYPE":"U","OBJECT_TYPE":"PAYLOAD","EPHEMERIS_TYPE":"0","RA_OF_ASC_NODE":"288.4318","PERIAPSIS":"546.096","GP_ID":"202027319","TLE_LINE2":"2 47405  53.0532 288.4318 0001604  64.8786 295.2369 15.06402132 69942","RCS_SIZE":"LARGE","TLE_LINE1":"1 47405U 21005BJ  22115.88414609  .00004412  00000-0  31488-3 0  9997","MEAN_ANOMALY":"295.2369","OBJECT_NAME":"STARLINK-2130","CENTER_NAME":"EARTH","TIME_SYSTEM":"UTC","MEAN_MOTION_DOT":"0.00004412","DECAY_DATE":null,"PERIOD":"95.592","REF_FRAME":"TEME","ARG_OF_PERICENTER":"64.8786","INCLINATION":"53.0532","NORAD_CAT_ID":"47405","OBJECT_ID":"2021-005BJ","SEMIMAJOR_AXIS":"6925.342","REV_AT_EPOCH":"6994","COUNTRY_CODE":"US","MEAN_ELEMENT_THEORY":"SGP4","MEAN_MOTION_DDOT":"0.0000000000000","BSTAR":"0.00031488000000","LAUNCH_DATE":"2021-01-20","EPOCH":"2022-04-25T21:13:10.222176","ECCENTRICITY":"0.00016040","ELEMENT_SET_NO":"999"},{"CENTER_NAME":"EARTH","MEAN_MOTION_DOT":"0.00001219","TIME_SYSTEM":"UTC","DECAY_DATE":null,"TLE_LINE1":"1 47406U 21005BK  22115.84636341  .00001219  00000-0  10071-3 0  9990","OBJECT_NAME":"STARLINK-2133","MEAN_ANOMALY":"275.9369","RCS_SIZE":"LARGE","RA_OF_ASC_NODE":"258.6130","PERIAPSIS":"546.260","TLE_LINE2":"2 47406  53.0564 258.6130 0001396  84.1779 275.9369 15.06395540 70361","GP_ID":"202026573","OBJECT_TYPE":"PAYLOAD","EPHEMERIS_TYPE":"0","MEAN_MOTION":"15.06395540","SITE":"AFETR","FILE":"3416090","CLASSIFICATION_TYPE":"U","APOAPSIS":"548.194","ECCENTRICITY":"0.00013960","ELEMENT_SET_NO":"999","BSTAR":"0.00010071000000","LAUNCH_DATE":"2021-01-20","EPOCH":"2022-04-25T20:18:45.798624","MEAN_MOTION_DDOT":"0.0000000000000","COUNTRY_CODE":"US","MEAN_ELEMENT_THEORY":"SGP4","SEMIMAJOR_AXIS":"6925.362","REV_AT_EPOCH":"7036","NORAD_CAT_ID":"47406","OBJECT_ID":"2021-005BK","REF_FRAME":"TEME","INCLINATION":"53.0564","ARG_OF_PERICENTER":"84.1779","PERIOD":"95.592"},{"ECCENTRICITY":"0.00020180","ELEMENT_SET_NO":"999","LAUNCH_DATE":"2021-01-20","BSTAR":"-0.00003725800000","EPOCH":"2022-04-25T18:53:50.726688","MEAN_MOTION_DDOT":"0.0000000000000","COUNTRY_CODE":"US","MEAN_ELEMENT_THEORY":"SGP4","SEMIMAJOR_AXIS":"6925.396","REV_AT_EPOCH":"7096","NORAD_CAT_ID":"47407","OBJECT_ID":"2021-005BL","REF_FRAME":"TEME","INCLINATION":"53.0535","ARG_OF_PERICENTER":"52.6933","PERIOD":"95.593","CENTER_NAME":"EARTH","TIME_SYSTEM":"UTC","MEAN_MOTION_DOT":"-0.00000836","DECAY_DATE":null,"TLE_LINE1":"1 47407U 21005BL  22115.78739267 -.00000836  00000-0 -37258-4 0  9998","MEAN_ANOMALY":"307.4240","OBJECT_NAME":"STARLINK-2134","RCS_SIZE":"LARGE","RA_OF_ASC_NODE":"258.8791","PERIAPSIS":"545.863","GP_ID":"202001102","TLE_LINE2":"2 47407  53.0535 258.8791 0002018  52.6933 307.4240 15.06384625 70966","OBJECT_TYPE":"PAYLOAD","EPHEMERIS_TYPE":"0","MEAN_MOTION":"15.06384625","SITE":"AFETR","FILE":"3415861","CLASSIFICATION_TYPE":"U","APOAPSIS":"548.658"},{"APOAPSIS":"548.393","CLASSIFICATION_TYPE":"U","FILE":"3416090","SITE":"AFETR","MEAN_MOTION":"15.06385201","EPHEMERIS_TYPE":"0","OBJECT_TYPE":"PAYLOAD","GP_ID":"202027570","TLE_LINE2":"2 47408  53.0556 259.3092 0001637  57.7083 302.4064 15.06385201 70340","PERIAPSIS":"546.125","RA_OF_ASC_NODE":"259.3092","RCS_SIZE":"LARGE","MEAN_ANOMALY":"302.4064","OBJECT_NAME":"STARLINK-2135","TLE_LINE1":"1 47408U 21005BM  22115.69155920  .00001388  00000-0  11208-3 0  9994","DECAY_DATE":null,"MEAN_MOTION_DOT":"0.00001388","TIME_SYSTEM":"UTC","CENTER_NAME":"EARTH","PERIOD":"95.593","INCLINATION":"53.0556","ARG_OF_PERICENTER":"57.7083","REF_FRAME":"TEME","OBJECT_ID":"2021-005BM","NORAD_CAT_ID":"47408","REV_AT_EPOCH":"7034","SEMIMAJOR_AXIS":"6925.394","MEAN_ELEMENT_THEORY":"SGP4","COUNTRY_CODE":"US","MEAN_MOTION_DDOT":"0.0000000000000","EPOCH":"2022-04-25T16:35:50.714880","BSTAR":"0.00011208000000","LAUNCH_DATE":"2021-01-20","ELEMENT_SET_NO":"999","ECCENTRICITY":"0.00016370"},{"EPHEMERIS_TYPE":"0","OBJECT_TYPE":"PAYLOAD","SITE":"AFETR","FILE":"3416090","CLASSIFICATION_TYPE":"U","MEAN_MOTION":"15.06399108","APOAPSIS":"548.324","DECAY_DATE":null,"CENTER_NAME":"EARTH","MEAN_MOTION_DOT":"0.00002117","TIME_SYSTEM":"UTC","OBJECT_NAME":"STARLINK-1782","MEAN_ANOMALY":"307.8189","TLE_LINE1":"1 47548U 21009A   22115.82977860  .00002117  00000-0  16098-3 0  9996","RCS_SIZE":"LARGE","TLE_LINE2":"2 47548  53.0536 238.6890 0001600  52.2945 307.8189 15.06399108 67834","GP_ID":"202027085","RA_OF_ASC_NODE":"238.6890","PERIAPSIS":"546.108","REV_AT_EPOCH":"6783","SEMIMAJOR_AXIS":"6925.351","OBJECT_ID":"2021-009A","NORAD_CAT_ID":"47548","REF_FRAME":"TEME","ARG_OF_PERICENTER":"52.2945","INCLINATION":"53.0536","PERIOD":"95.592","ELEMENT_SET_NO":"999","ECCENTRICITY":"0.00016000","EPOCH":"2022-04-25T19:54:52.871040","BSTAR":"0.00016098000000","LAUNCH_DATE":"2021-02-04","MEAN_MOTION_DDOT":"0.0000000000000","MEAN_ELEMENT_THEORY":"SGP4","COUNTRY_CODE":"US"},{"MEAN_MOTION":"15.06385336","CLASSIFICATION_TYPE":"U","SITE":"AFETR","FILE":"3416090","APOAPSIS":"548.371","OBJECT_TYPE":"PAYLOAD","EPHEMERIS_TYPE":"0","RCS_SIZE":"LARGE","PERIAPSIS":"546.146","RA_OF_ASC_NODE":"239.0033","TLE_LINE2":"2 47549  53.0537 239.0033 0001606  66.1891 293.9266 15.06385336 67828","GP_ID":"202027335","MEAN_MOTION_DOT":"0.00000084","TIME_SYSTEM":"UTC","CENTER_NAME":"EARTH","DECAY_DATE":null,"TLE_LINE1":"1 47549U 21009B   22115.75974678  .00000084  00000-0  24580-4 0  9990","MEAN_ANOMALY":"293.9266","OBJECT_NAME":"STARLINK-1806","ARG_OF_PERICENTER":"66.1891","INCLINATION":"53.0537","REF_FRAME":"TEME","PERIOD":"95.593","SEMIMAJOR_AXIS":"6925.394","REV_AT_EPOCH":"6782","NORAD_CAT_ID":"47549","OBJECT_ID":"2021-009B","MEAN_MOTION_DDOT":"0.0000000000000","COUNTRY_CODE":"US","MEAN_ELEMENT_THEORY":"SGP4","ECCENTRICITY":"0.00016060","ELEMENT_SET_NO":"999","LAUNCH_DATE":"2021-02-04","BSTAR":"0.00002458000000","EPOCH":"2022-04-25T18:14:02.121792"},{"TLE_LINE1":"1 47550U 21009C   22115.70538051  .00002503  00000-0  18690-3 0  9990","MEAN_ANOMALY":"315.7177","OBJECT_NAME":"STARLINK-1909","CENTER_NAME":"EARTH","TIME_SYSTEM":"UTC","MEAN_MOTION_DOT":"0.00002503","DECAY_DATE":null,"RA_OF_ASC_NODE":"229.2467","PERIAPSIS":"546.154","GP_ID":"202026589","TLE_LINE2":"2 47550  53.0517 229.2467 0001566  44.3937 315.7177 15.06391860 67951","RCS_SIZE":"LARGE","OBJECT_TYPE":"PAYLOAD","EPHEMERIS_TYPE":"0","APOAPSIS":"548.323","MEAN_MOTION":"15.06391860","FILE":"3416090","SITE":"AFETR","CLASSIFICATION_TYPE":"U","LAUNCH_DATE":"2021-02-04","BSTAR":"0.00018690000000","EPOCH":"2022-04-25T16:55:44.876064","ECCENTRICITY":"0.00015660","ELEMENT_SET_NO":"999","COUNTRY_CODE":"US","MEAN_ELEMENT_THEORY":"SGP4","MEAN_MOTION_DDOT":"0.0000000000000","NORAD_CAT_ID":"47550","OBJECT_ID":"2021-009C","SEMIMAJOR_AXIS":"6925.374","REV_AT_EPOCH":"6795","PERIOD":"95.593","REF_FRAME":"TEME","ARG_OF_PERICENTER":"44.3937","INCLINATION":"53.0517"},{"MEAN_MOTION_DDOT":"0.0000000000000","COUNTRY_CODE":"US","MEAN_ELEMENT_THEORY":"SGP4","ECCENTRICITY":"0.00017150","ELEMENT_SET_NO":"999","LAUNCH_DATE":"2021-02-04","BSTAR":"0.00011515000000","EPOCH":"2022-04-25T18:23:18.394368","REF_FRAME":"TEME","INCLINATION":"53.0562","ARG_OF_PERICENTER":"50.2861","PERIOD":"95.592","SEMIMAJOR_AXIS":"6925.346","REV_AT_EPOCH":"6768","NORAD_CAT_ID":"47551","OBJECT_ID":"2021-009D","RCS_SIZE":"LARGE","RA_OF_ASC_NODE":"248.9753","PERIAPSIS":"546.023","GP_ID":"202026839","TLE_LINE2":"2 47551  53.0562 248.9753 0001715  50.2861 309.8279 15.06400976 67682","CENTER_NAME":"EARTH","MEAN_MOTION_DOT":"0.00001434","TIME_SYSTEM":"UTC","DECAY_DATE":null,"TLE_LINE1":"1 47551U 21009D   22115.76618512  .00001434  00000-0  11515-3 0  9999","OBJECT_NAME":"STARLINK-1938","MEAN_ANOMALY":"309.8279","MEAN_MOTION":"15.06400976","SITE":"AFETR","FILE":"3416090","CLASSIFICATION_TYPE":"U","APOAPSIS":"548.398","OBJECT_TYPE":"PAYLOAD","EPHEMERIS_TYPE":"0"},{"COUNTRY_CODE":"US","MEAN_ELEMENT_THEORY":"SGP4","MEAN_MOTION_DDOT":"0.0000000000000","BSTAR":"-0.00014775000000","LAUNCH_DATE":"2021-02-04","EPOCH":"2022-04-25T16:54:24.593184","ECCENTRICITY":"0.00016400","ELEMENT_SET_NO":"999","PERIOD":"95.593","REF_FRAME":"TEME","ARG_OF_PERICENTER":"54.3976","INCLINATION":"53.0541","NORAD_CAT_ID":"47552","OBJECT_ID":"2021-009E","SEMIMAJOR_AXIS":"6925.382","REV_AT_EPOCH":"6781","RA_OF_ASC_NODE":"239.2497","PERIAPSIS":"546.111","GP_ID":"202027586","TLE_LINE2":"2 47552  53.0541 239.2497 0001640  54.3976 305.7166 15.06389090 67815","RCS_SIZE":"LARGE","TLE_LINE1":"1 47552U 21009E   22115.70445131 -.00002481  00000-0 -14775-3 0  9995","OBJECT_NAME":"STARLINK-1940","MEAN_ANOMALY":"305.7166","CENTER_NAME":"EARTH","MEAN_MOTION_DOT":"-0.00002481","TIME_SYSTEM":"UTC","DECAY_DATE":null,"APOAPSIS":"548.383","MEAN_MOTION":"15.06389090","FILE":"3416090","SITE":"AFETR","CLASSIFICATION_TYPE":"U","OBJECT_TYPE":"PAYLOAD","EPHEMERIS_TYPE":"0"},{"REF_FRAME":"TEME","INCLINATION":"53.0520","ARG_OF_PERICENTER":"70.1429","PERIOD":"95.593","REV_AT_EPOCH":"6754","SEMIMAJOR_AXIS":"6925.381","OBJECT_ID":"2021-009G","NORAD_CAT_ID":"47554","MEAN_MOTION_DDOT":"0.0000000000000","MEAN_ELEMENT_THEORY":"SGP4","COUNTRY_CODE":"US","ELEMENT_SET_NO":"999","ECCENTRICITY":"0.00018000","EPOCH":"2022-04-25T18:37:55.118496","BSTAR":"0.00007084400000","LAUNCH_DATE":"2021-02-04","SITE":"AFETR","FILE":"3416090","CLASSIFICATION_TYPE":"U","MEAN_MOTION":"15.06389523","APOAPSIS":"548.492","EPHEMERIS_TYPE":"0","OBJECT_TYPE":"PAYLOAD","RCS_SIZE":"LARGE","GP_ID":"202027836","TLE_LINE2":"2 47554  53.0520 258.9291 0001800  70.1429 289.9753 15.06389523 67547","RA_OF_ASC_NODE":"258.9291","PERIAPSIS":"545.999","DECAY_DATE":null,"CENTER_NAME":"EARTH","MEAN_MOTION_DOT":"0.00000773","TIME_SYSTEM":"UTC","MEAN_ANOMALY":"289.9753","OBJECT_NAME":"STARLINK-1953","TLE_LINE1":"1 47554U 21009G   22115.77633239  .00000773  00000-0  70844-4 0  9992"}];
